{"type": "FeatureCollection", "features": [ {"type": "Feature", "properties": {"norad_id": 41549, "name": "GSAT0211 (GALILEO 14)", "group": "gnss", "lat": 48.657347255981506, "lon": -80.68969426479833, "alt_km": 23209.99701371735, "timestamp": "2025-12-04T03:47:54.788533+00:00", "meta": {"OBJECT_NAME": "GSAT0211 (GALILEO 14)", "OBJECT_ID": "2016-030A", "EPOCH": "2025-12-01T16:54:04.942368", "MEAN_MOTION": 1.70472896, "ECCENTRICITY": 0.00038995, "INCLINATION": 55.1563, "RA_OF_ASC_NODE": 227.1275, "ARG_OF_PERICENTER": 10.5053, "MEAN_ANOMALY": 349.5828, "EPHEMERIS_TYPE": 0, "CLASSIFICATION_TYPE": "U", "NORAD_CAT_ID": 41549, "ELEMENT_SET_NO": 999, "REV_AT_EPOCH": 5930, "BSTAR": 0, "MEAN_MOTION_DOT": 3.3e-07, "MEAN_MOTION_DDOT": 0}, "tle": {"line1": "1 41549U 16030A   25335.70422387  .00000033  00000+0  00000+0 0  9998", "line2": "2 41549  55.1563 227.1275 0003899  10.5053 349.5828  1.70472896 59309"}}, "geometry": {"type": "Point", "coordinates": [-80.68969426479833, 48.657347255981506]}}, {"type": "Feature", "properties": {"norad_id": 41550, "name": "GSAT0210 (GALILEO 13)", "group": "gnss", "lat": -55.13032091811062, "lon": 133.76329105468702, "alt_km": 23224.91580010811, "timestamp": "2025-12-04T03:47:54.788544+00:00", "meta": {"OBJECT_NAME": "GSAT0210 (GALILEO 13)", "OBJECT_ID": "2016-030B", "EPOCH": "2025-12-03T03:14:10.364352", "MEAN_MOTION": 1.70473449, "ECCENTRICITY": 0.0001223, "INCLINATION": 55.1551, "RA_OF_ASC_NODE": 227.0861, "ARG_OF_PERICENTER": 241.4534, "MEAN_ANOMALY": 118.6225, "EPHEMERIS_TYPE": 0, "CLASSIFICATION_TYPE": "U", "NORAD_CAT_ID": 41550, "ELEMENT_SET_NO": 999, "REV_AT_EPOCH": 5932, "BSTAR": 0, "MEAN_MOTION_DOT": 3.9e-07, "MEAN_MOTION_DDOT": 0}, "tle": {"line1": "1 41550U 16030B   25337.13484218  .00000039  00000+0  00000+0 0  9996", "line2": "2 41550  55.1551 227.0861 0001223 241.4534 118.6225  1.70473449 59329"}}, "geometry": {"type": "Point", "coordinates": [133.76329105468702, -55.13032091811062]}}, {"type": "Feature", "properties": {"norad_id": 41586, "name": "BEIDOU-2 G7 (C03)", "group": "gnss", "lat": 0.18508219128664347, "lon": -119.30530668681496, "alt_km": 35804.463067014134, "timestamp": "2025-12-04T03:47:54.788558+00:00", "meta": {"OBJECT_NAME": "BEIDOU-2 G7 (C03)", "OBJECT_ID": "2016-037A", "EPOCH": "2025-12-03T19:25:06.201984", "MEAN_MOTION": 1.00271395, "ECCENTRICITY": 0.0004386, "INCLINATION": 1.7336, "RA_OF_ASC_NODE": 67.6984, "ARG_OF_PERICENTER": 4.1798, "MEAN_ANOMALY": 42.7772, "EPHEMERIS_TYPE": 0, "CLASSIFICATION_TYPE": "U", "NORAD_CAT_ID": 41586, "ELEMENT_SET_NO": 999, "REV_AT_EPOCH": 493, "BSTAR": 0, "MEAN_MOTION_DOT": -3.37e-06, "MEAN_MOTION_DDOT": 0}, "tle": {"line1": "1 41586U 16037A   25337.80909956 -.00000337  00000+0  00000+0 0  9999", "line2": "2 41586   1.7336  67.6984 0004386   4.1798  42.7772  1.00271395  4939"}}, "geometry": {"type": "Point", "coordinates": [-119.30530668681496, 0.18508219128664347]}}, {"type": "Feature", "properties": {"norad_id": 41589, "name": "EUTELSAT 117 WEST B (WAAS/PRN 131)", "group": "gnss", "lat": -0.014402904480163098, "lon": 13.184054199629546, "alt_km": 35787.460200173606, "timestamp": "2025-12-04T03:47:54.788570+00:00", "meta": {"OBJECT_NAME": "EUTELSAT 117 WEST B (WAAS/PRN 131)", "OBJECT_ID": "2016-038B", "EPOCH": "2025-12-03T16:37:22.266912", "MEAN_MOTION": 1.002675, "ECCENTRICITY": 2.71e-05, "INCLINATION": 0.0072, "RA_OF_ASC_NODE": 146.0291, "ARG_OF_PERICENTER": 327.1169, "MEAN_ANOMALY": 91.9765, "EPHEMERIS_TYPE": 0, "CLASSIFICATION_TYPE": "U", "NORAD_CAT_ID": 41589, "ELEMENT_SET_NO": 999, "REV_AT_EPOCH": 3470, "BSTAR": 0, "MEAN_MOTION_DOT": 7e-08, "MEAN_MOTION_DDOT": 0}, "tle": {"line1": "1 41589U 16038B   25337.69261883  .00000007  00000+0  00000+0 0  9993", "line2": "2 41589   0.0072 146.0291 0000271 327.1169  91.9765  1.00267500 34702"}}, "geometry": {"type": "Point", "coordinates": [13.184054199629546, -0.014402904480163098]}}, {"type": "Feature", "properties": {"norad_id": 41859, "name": "GSAT0207 (GALILEO 15)", "group": "gnss", "lat": 54.700558889440835, "lon": -150.73568644052568, "alt_km": 23220.01123681647, "timestamp": "2025-12-04T03:47:54.788582+00:00", "meta": {"OBJECT_NAME": "GSAT0207 (GALILEO 15)", "OBJECT_ID": "2016-069A", "EPOCH": "2025-12-03T09:54:53.472096", "MEAN_MOTION": 1.70474233, "ECCENTRICITY": 0.0002136, "INCLINATION": 55.3776, "RA_OF_ASC_NODE": 106.5086, "ARG_OF_PERICENTER": 326.0085, "MEAN_ANOMALY": 33.9336, "EPHEMERIS_TYPE": 0, "CLASSIFICATION_TYPE": "U", "NORAD_CAT_ID": 41859, "ELEMENT_SET_NO": 999, "REV_AT_EPOCH": 5606, "BSTAR": 0, "MEAN_MOTION_DOT": 2e-07, "MEAN_MOTION_DDOT": 0}, "tle": {"line1": "1 41859U 16069A   25337.41311889  .00000020  00000+0  00000+0 0  9994", "line2": "2 41859  55.3776 106.5086 0002136 326.0085  33.9336  1.70474233 56069"}}, "geometry": {"type": "Point", "coordinates": [-150.73568644052568, 54.700558889440835]}}, {"type": "Feature", "properties": {"norad_id": 41860, "name": "GSAT0212 (GALILEO 16)", "group": "gnss", "lat": -5.918571524340781, "lon": -69.43169337472781, "alt_km": 23229.086963487836, "timestamp": "2025-12-04T03:47:54.788593+00:00", "meta": {"OBJECT_NAME": "GSAT0212 (GALILEO 16)", "OBJECT_ID": "2016-069B", "EPOCH": "2025-12-02T16:19:30.905184", "MEAN_MOTION": 1.70474418, "ECCENTRICITY": 0.00022458, "INCLINATION": 55.3738, "RA_OF_ASC_NODE": 106.5243, "ARG_OF_PERICENTER": 34.2432, "MEAN_ANOMALY": 325.7313, "EPHEMERIS_TYPE": 0, "CLASSIFICATION_TYPE": "U", "NORAD_CAT_ID": 41860, "ELEMENT_SET_NO": 999, "REV_AT_EPOCH": 5630, "BSTAR": 0, "MEAN_MOTION_DOT": 2.7e-07, "MEAN_MOTION_DDOT": 0}, "tle": {"line1": "1 41860U 16069B   25336.68021881  .00000027  00000+0  00000+0 0  9991", "line2": "2 41860  55.3738 106.5243 0002245  34.2432 325.7313  1.70474418 56308"}}, "geometry": {"type": "Point", "coordinates": [-69.43169337472781, -5.918571524340781]}}, {"type": "Feature", "properties": {"norad_id": 41861, "name": "GSAT0213 (GALILEO 17)", "group": "gnss", "lat": -30.79089891193755, "lon": 82.17464813627268, "alt_km": 23221.159041732746, "timestamp": "2025-12-04T03:47:54.788604+00:00", "meta": {"OBJECT_NAME": "GSAT0213 (GALILEO 17)", "OBJECT_ID": "2016-069C", "EPOCH": "2025-12-01T20:59:28.954752", "MEAN_MOTION": 1.70474717, "ECCENTRICITY": 0.00020626, "INCLINATION": 55.3756, "RA_OF_ASC_NODE": 106.5542, "ARG_OF_PERICENTER": 284.0381, "MEAN_ANOMALY": 75.9044, "EPHEMERIS_TYPE": 0, "CLASSIFICATION_TYPE": "U", "NORAD_CAT_ID": 41861, "ELEMENT_SET_NO": 999, "REV_AT_EPOCH": 5615, "BSTAR": 0, "MEAN_MOTION_DOT": 3.5e-07, "MEAN_MOTION_DDOT": 0}, "tle": {"line1": "1 41861U 16069C   25335.87464068  .00000035  00000+0  00000+0 0  9999", "line2": "2 41861  55.3756 106.5542 0002062 284.0381  75.9044  1.70474717 56156"}}, "geometry": {"type": "Point", "coordinates": [82.17464813627268, -30.79089891193755]}}, {"type": "Feature", "properties": {"norad_id": 41862, "name": "GSAT0214 (GALILEO 18)", "group": "gnss", "lat": -40.391639982233855, "lon": -37.556847140244855, "alt_km": 23225.26098224193, "timestamp": "2025-12-04T03:47:54.788615+00:00", "meta": {"OBJECT_NAME": "GSAT0214 (GALILEO 18)", "OBJECT_ID": "2016-069D", "EPOCH": "2025-12-02T14:34:22.700352", "MEAN_MOTION": 1.70474512, "ECCENTRICITY": 0.0001109, "INCLINATION": 55.3745, "RA_OF_ASC_NODE": 106.5268, "ARG_OF_PERICENTER": 291.2976, "MEAN_ANOMALY": 68.6511, "EPHEMERIS_TYPE": 0, "CLASSIFICATION_TYPE": "U", "NORAD_CAT_ID": 41862, "ELEMENT_SET_NO": 999, "REV_AT_EPOCH": 5629, "BSTAR": 0, "MEAN_MOTION_DOT": 2.8e-07, "MEAN_MOTION_DDOT": 0}, "tle": {"line1": "1 41862U 16069D   25336.60720718  .00000028  00000+0  00000+0 0  9991", "line2": "2 41862  55.3745 106.5268 0001109 291.2976  68.6511  1.70474512 56297"}}, "geometry": {"type": "Point", "coordinates": [-37.556847140244855, -40.391639982233855]}}, {"type": "Feature", "properties": {"norad_id": 42709, "name": "SES-15 (WAAS/PRN 133)", "group": "gnss", "lat": 0.019210525250740386, "lon": 0.9965577775335956, "alt_km": 35787.26918563074, "timestamp": "2025-12-04T03:47:54.788626+00:00", "meta": {"OBJECT_NAME": "SES-15 (WAAS/PRN 133)", "OBJECT_ID": "2017-026A", "EPOCH": "2025-12-02T12:16:38.557632", "MEAN_MOTION": 1.00268611, "ECCENTRICITY": 3.415e-05, "INCLINATION": 0.02, "RA_OF_ASC_NODE": 343.4979, "ARG_OF_PERICENTER": 269.9972, "MEAN_ANOMALY": 233.0968, "EPHEMERIS_TYPE": 0, "CLASSIFICATION_TYPE": "U", "NORAD_CAT_ID": 42709, "ELEMENT_SET_NO": 999, "REV_AT_EPOCH": 546, "BSTAR": 0, "MEAN_MOTION_DOT": 8.1e-07, "MEAN_MOTION_DDOT": 0}, "tle": {"line1": "1 42709U 17026A   25336.51155738  .00000081  00000+0  00000+0 0  9999", "line2": "2 42709   0.0200 343.4979 0000341 269.9972 233.0968  1.00268611  5468"}}, "geometry": {"type": "Point", "coordinates": [0.9965577775335956, 0.019210525250740386]}}, {"type": "Feature", "properties": {"norad_id": 42738, "name": "QZS-2 (QZSS/PRN 194)", "group": "gnss", "lat": 20.41118524764793, "lon": -87.43160685647447, "alt_km": 37369.03637344275, "timestamp": "2025-12-04T03:47:54.788639+00:00", "meta": {"OBJECT_NAME": "QZS-2 (QZSS/PRN 194)", "OBJECT_ID": "2017-028A", "EPOCH": "2025-12-03T14:23:28.547808", "MEAN_MOTION": 1.00285452, "ECCENTRICITY": 0.0759039, "INCLINATION": 39.729, "RA_OF_ASC_NODE": 246.0173, "ARG_OF_PERICENTER": 269.3809, "MEAN_ANOMALY": 274.5986, "EPHEMERIS_TYPE": 0, "CLASSIFICATION_TYPE": "U", "NORAD_CAT_ID": 42738, "ELEMENT_SET_NO": 999, "REV_AT_EPOCH": 566, "BSTAR": 0, "MEAN_MOTION_DOT": -1.52e-06, "MEAN_MOTION_DDOT": 0}, "tle": {"line1": "1 42738U 17028A   25337.59963597 -.00000152  00000+0  00000+0 0  9992", "line2": "2 42738  39.7290 246.0173 0759039 269.3809 274.5986  1.00285452  5664"}}, "geometry": {"type": "Point", "coordinates": [-87.43160685647447, 20.41118524764793]}}]}